ADRAS-J                 
1 58992U 24034A   24261.43379308  .00018065  00000+0  16064-2 0  9996
2 58992  98.2221 238.7641 0045695 104.5440 256.0855 14.95345326 31644
